[{"OBJECT_NAME":"OPS 5712 (P\/L 153)","OBJECT_ID":"1967-053H","EPOCH":"2026-03-09T22:39:20.284128","MEAN_MOTION":13.96811985,"ECCENTRICITY":0.00092151,"INCLINATION":69.9762,"RA_OF_ASC_NODE":328.0261,"ARG_OF_PERICENTER":309.8134,"MEAN_ANOMALY":50.216,"EPHEMERIS_TYPE":0,"CLASSIFICATION_TYPE":"U","NORAD_CAT_ID":2874,"ELEMENT_SET_NO":999,"REV_AT_EPOCH":99292,"BSTAR":8.3692014e-5,"MEAN_MOTION_DOT":6.3e-7,"MEAN_MOTION_DDOT":0},{"OBJECT_NAME":"SL-3 R\/B","OBJECT_ID":"1973-034B","EPOCH":"2026-03-09T17:24:27.486432","MEAN_MOTION":14.06269653,"ECCENTRICITY":0.00476978,"INCLINATION":81.2334,"RA_OF_ASC_NODE":159.2764,"ARG_OF_PERICENTER":132.5645,"MEAN_ANOMALY":227.9565,"EPHEMERIS_TYPE":0,"CLASSIFICATION_TYPE":"U","NORAD_CAT_ID":6660,"ELEMENT_SET_NO":999,"REV_AT_EPOCH":70602,"BSTAR":7.4840417e-5,"MEAN_MOTION_DOT":1.37e-6,"MEAN_MOTION_DDOT":0}]
